[{"OBJECT_NAME":"TIANMU-1 07","OBJECT_ID":"2023-101A","EPOCH":"2026-03-06T13:47:20.454720","MEAN_MOTION":15.29118809,"ECCENTRICITY":0.00046097,"INCLINATION":97.2728,"RA_OF_ASC_NODE":118.5929,"ARG_OF_PERICENTER":142.4105,"MEAN_ANOMALY":217.7458,"EPHEMERIS_TYPE":0,"CLASSIFICATION_TYPE":"U","NORAD_CAT_ID":57399,"ELEMENT_SET_NO":999,"REV_AT_EPOCH":14596,"BSTAR":0.00029794732,"MEAN_MOTION_DOT":8.352e-5,"MEAN_MOTION_DDOT":0},{"OBJECT_NAME":"STARLINK-35709","OBJECT_ID":"2025-244L","EPOCH":"2026-03-09T17:32:57.817536","MEAN_MOTION":15.30208054,"ECCENTRICITY":8.707e-5,"INCLINATION":53.1574,"RA_OF_ASC_NODE":229.8782,"ARG_OF_PERICENTER":74.3362,"MEAN_ANOMALY":285.7735,"EPHEMERIS_TYPE":0,"CLASSIFICATION_TYPE":"U","NORAD_CAT_ID":66216,"ELEMENT_SET_NO":999,"REV_AT_EPOCH":2166,"BSTAR":0.0010666771,"MEAN_MOTION_DOT":0.00031374,"MEAN_MOTION_DDOT":0}]
