TIANMU-1 07             
1 57399U 23101A   26065.57454230  .00008352  00000+0  29795-3 0  9991
2 57399  97.2728 118.5929 0004609 142.4105 217.7458 15.29118809145964
STARLINK-35709          
1 66216U 25244L   26068.73122473  .00031374  00000+0  10667-2 0  9998
2 66216  53.1574 229.8782 0000871  74.3362 285.7735 15.30208054 21667
